[{"OBJECT_NAME":"STARLINK-2081","OBJECT_ID":"2021-005T","EPOCH":"2026-03-10T00:00:02.999808","MEAN_MOTION":15.11382096,"ECCENTRICITY":0.00011542,"INCLINATION":53.0731,"RA_OF_ASC_NODE":60.1713,"ARG_OF_PERICENTER":72.8925,"MEAN_ANOMALY":345.3499,"EPHEMERIS_TYPE":0,"CLASSIFICATION_TYPE":"U","NORAD_CAT_ID":47366,"ELEMENT_SET_NO":999,"REV_AT_EPOCH":574,"BSTAR":0.0047781147,"MEAN_MOTION_DOT":0.0008222,"MEAN_MOTION_DDOT":0},{"OBJECT_NAME":"FENGYUN 1C DEB","OBJECT_ID":"1999-025DDJ","EPOCH":"2026-03-01T18:34:40.606176","MEAN_MOTION":14.6204627,"ECCENTRICITY":0.02210591,"INCLINATION":98.62,"RA_OF_ASC_NODE":179.8313,"ARG_OF_PERICENTER":250.664,"MEAN_ANOMALY":107.0539,"EPHEMERIS_TYPE":0,"CLASSIFICATION_TYPE":"U","NORAD_CAT_ID":33625,"ELEMENT_SET_NO":999,"REV_AT_EPOCH":62545,"BSTAR":0.0012246157,"MEAN_MOTION_DOT":8.674e-5,"MEAN_MOTION_DDOT":0}]
